[
  {
    "name": "KUIPER-00230",
    "noradId": "68579",
    "line1": "1 68579U 26072G   26162.34069419  .00018074  00000+0  48836-3 0  9996",
    "line2": "2 68579  51.8752 205.0114 0002584  11.7791 348.3256 15.37798502 10484"
  },
  {
    "name": "KUIPER-00231",
    "noradId": "68580",
    "line1": "1 68580U 26072H   26162.40114047  .00019987  00000+0  53880-3 0  9992",
    "line2": "2 68580  51.8734 204.6624 0003231  15.5818 344.5268 15.37797987 10497"
  },
  {
    "name": "KUIPER-00234",
    "noradId": "68581",
    "line1": "1 68581U 26072J   26162.41273125  .00001335  00000+0  22036-3 0  9994",
    "line2": "2 68581  51.8984 215.3798 0001649 150.6337 209.4717 14.76526931 10347"
  },
  {
    "name": "KUIPER-00236",
    "noradId": "68582",
    "line1": "1 68582U 26072K   26162.41747488  .00024145  00000+0  65653-3 0  9999",
    "line2": "2 68582  51.8747 204.7693 0003920   5.2373 354.8654 15.37407663 10499"
  },
  {
    "name": "KUIPER-00244",
    "noradId": "68583",
    "line1": "1 68583U 26072L   26162.58335648  .00042757  00000+0  32708-2 0  9992",
    "line2": "2 68583  51.8938 205.9687 0002655  20.2599 308.8123 15.01487527  5660"
  },
  {
    "name": "KUIPER-00253",
    "noradId": "68584",
    "line1": "1 68584U 26072M   26162.58335648  .00028112  00000+0  28719-2 0  9999",
    "line2": "2 68584  51.8980 208.2081 0008828  43.0570 106.9192 14.90352070  5093"
  },
  {
    "name": "KUIPER-00254",
    "noradId": "68585",
    "line1": "1 68585U 26072N   26162.58335648  .00019342  00000+0  24413-2 0  9992",
    "line2": "2 68585  51.9014 210.4512 0002873  74.2630  27.3655 14.81908607  4861"
  },
  {
    "name": "KUIPER-00263",
    "noradId": "68586",
    "line1": "1 68586U 26072P   26162.33295191  .00023274  00000+0  61873-3 0  9995",
    "line2": "2 68586  51.8748 204.9579 0002345 354.2566   5.8393 15.38131667 10481"
  },
  {
    "name": "KUIPER-00269",
    "noradId": "68587",
    "line1": "1 68587U 26072Q   26162.59611622 -.00247899  00000+0 -70147-2 0  9991",
    "line2": "2 68587  51.8728 203.7144 0005716 357.5525   2.5432 15.36714693 10528"
  },
  {
    "name": "KUIPER-00272",
    "noradId": "68588",
    "line1": "1 68588U 26072R   26162.45366071  .00002164  00000+0  31290-3 0  9991",
    "line2": "2 68588  51.8972 218.4972 0000827  55.1158 304.9882 14.79920491 10308"
  },
  {
    "name": "KUIPER-00285",
    "noradId": "68589",
    "line1": "1 68589U 26072S   26162.58335648  .00070342  00000+0  20619-2 0  9997",
    "line2": "2 68589  51.8743 203.8185 0007277   5.6600 254.3196 15.34527770  5548"
  },
  {
    "name": "KUIPER-00286",
    "noradId": "68590",
    "line1": "1 68590U 26072T   26162.39922627  .00024402  00000+0  66131-3 0  9993",
    "line2": "2 68590  51.8728 204.6431 0005112 354.8335   5.2598 15.37501023 10491"
  },
  {
    "name": "KUIPER-00289",
    "noradId": "68591",
    "line1": "1 68591U 26072U   26162.58335648  .00044225  00000+0  22013-2 0  9991",
    "line2": "2 68591  51.8764 205.3987 0012017  19.5047 130.1870 15.17108394  4310"
  },
  {
    "name": "KUIPER-00290",
    "noradId": "68592",
    "line1": "1 68592U 26072V   26162.58335648  .00042966  00000+0  20751-2 0  9999",
    "line2": "2 68592  51.8786 205.2734 0012814  11.3145 259.7215 15.18163677  1301"
  },
  {
    "name": "KUIPER-00293",
    "noradId": "68593",
    "line1": "1 68593U 26072W   26162.39153585  .00010322  00000+0  13803-2 0  9998",
    "line2": "2 68593  51.8960 213.7772 0003449  44.4157 315.7082 14.79950327 10369"
  },
  {
    "name": "KUIPER-00294",
    "noradId": "68594",
    "line1": "1 68594U 26072X   26162.58335648  .00035823  00000+0  13104-2 0  9999",
    "line2": "2 68594  51.8715 204.6704 0011776   4.6752 196.9741 15.27664041  3950"
  },
  {
    "name": "KUIPER-00296",
    "noradId": "68595",
    "line1": "1 68595U 26072Y   26162.36936838  .00031437  00000+0  83045-3 0  9993",
    "line2": "2 68595  51.8696 205.1615 0009644   4.7551 355.3526 15.38121375 10483"
  },
  {
    "name": "KUIPER-00297",
    "noradId": "68596",
    "line1": "1 68596U 26072Z   26162.58335648  .00041032  00000+0  58449-2 0  9991",
    "line2": "2 68596  51.8982 211.8476 0001588  94.5517 219.3602 14.76404268  4134"
  },
  {
    "name": "KUIPER-00300",
    "noradId": "68597",
    "line1": "1 68597U 26072AA  26162.58335648  .00004287  00000+0  54899-3 0  9999",
    "line2": "2 68597  51.9015 209.0263 0007416  37.7841 250.0652 14.83067815  4735"
  },
  {
    "name": "KUIPER-00301",
    "noradId": "68598",
    "line1": "1 68598U 26072AB  26162.37097154  .00017989  00000+0  48127-3 0  9994",
    "line2": "2 68598  51.8642 205.1406 0010057   8.1611 351.9537 15.38069462 10482"
  },
  {
    "name": "KUIPER-00304",
    "noradId": "68599",
    "line1": "1 68599U 26072AC  26162.38001370  .00027571  00000+0  73638-3 0  9994",
    "line2": "2 68599  51.8672 205.2116 0011947   6.2463 353.8671 15.37827139 10480"
  },
  {
    "name": "KUIPER-00317",
    "noradId": "68600",
    "line1": "1 68600U 26072AD  26162.58335648  .00060478  00000+0  23901-2 0  9997",
    "line2": "2 68600  51.8759 204.4590 0011032   2.3415 270.7867 15.24865589  1307"
  },
  {
    "name": "KUIPER-00320",
    "noradId": "68601",
    "line1": "1 68601U 26072AE  26162.58335648 -.00019079  00000+0 -14083-2 0  9992",
    "line2": "2 68601  51.8875 206.5773 0012983   5.5557 249.1132 15.02313607  5462"
  },
  {
    "name": "KUIPER-00299",
    "noradId": "68864",
    "line1": "1 68864U 26095A   26162.58335648  .00071327  00000+0  72307-2 0  9993",
    "line2": "2 68864  51.9087 273.5708 0008788 303.4204 233.9993 14.90200368  4750"
  },
  {
    "name": "KUIPER-00353",
    "noradId": "68865",
    "line1": "1 68865U 26095B   26162.60381006  .00480291  00000+0  11890-1 0  9999",
    "line2": "2 68865  51.8847 269.1443 0002048 292.6701  67.4069 15.37963811  6875"
  },
  {
    "name": "KUIPER-00357",
    "noradId": "68866",
    "line1": "1 68866U 26095C   26162.58335648 -.00011098  00000+0 -56397-3 0  9998",
    "line2": "2 68866  51.8874 270.2285 0002067 347.9119 155.2348 15.15465269  4459"
  },
  {
    "name": "KUIPER-00364",
    "noradId": "68867",
    "line1": "1 68867U 26095D   26162.58335648 -.00009537  00000+0 -58383-3 0  9991",
    "line2": "2 68867  51.8887 271.3304 0001993 348.4020 339.2269 15.08686769  3998"
  },
  {
    "name": "KUIPER-00375",
    "noradId": "68868",
    "line1": "1 68868U 26095E   26162.60412553  .00023713  00000+0  64065-3 0  9990",
    "line2": "2 68868  51.8833 269.1484 0001827 298.1003  61.9800 15.37622791  6879"
  },
  {
    "name": "KUIPER-00433",
    "noradId": "68869",
    "line1": "1 68869U 26095F   26161.03709509  .00002009  00000+0  30621-3 0  9993",
    "line2": "2 68869  51.9005 284.7606 0001990  78.6103 281.5082 14.77935609  6526"
  },
  {
    "name": "KUIPER-00437",
    "noradId": "68870",
    "line1": "1 68870U 26095G   26162.56885931  .00034989  00000+0  93333-3 0  9999",
    "line2": "2 68870  51.8799 269.6429 0007876 288.8384  71.1748 15.37781553  6860"
  },
  {
    "name": "KUIPER-00448",
    "noradId": "68871",
    "line1": "1 68871U 26095H   26162.60689695 -.00047537  00000+0 -16687-2 0  9995",
    "line2": "2 68871  51.8872 269.8567 0003589 307.0535  53.0120 15.28866101  6863"
  },
  {
    "name": "KUIPER-00459",
    "noradId": "68872",
    "line1": "1 68872U 26095J   26162.54538427 -.00034806  00000+0 -10062-2 0  9991",
    "line2": "2 68872  51.8722 270.1899 0009711 288.7355  71.2577 15.34853356  6851"
  },
  {
    "name": "KUIPER-00468",
    "noradId": "68873",
    "line1": "1 68873U 26095K   26162.55370249  .00032120  00000+0  86570-3 0  9992",
    "line2": "2 68873  51.8834 269.5547 0003907 267.5071  92.5468 15.37526030  6864"
  },
  {
    "name": "KUIPER-00476",
    "noradId": "68874",
    "line1": "1 68874U 26095L   26162.60089943  .00023151  00000+0  66511-3 0  9994",
    "line2": "2 68874  51.8739 269.8264 0008028 287.4653  72.5455 15.35695286  6866"
  },
  {
    "name": "KUIPER-00478",
    "noradId": "68875",
    "line1": "1 68875U 26095M   26162.57668825  .00025510  00000+0  68728-3 0  9996",
    "line2": "2 68875  51.8778 269.6862 0007891 295.2434  64.7735 15.37640767  6863"
  },
  {
    "name": "KUIPER-00480",
    "noradId": "68876",
    "line1": "1 68876U 26095N   26162.56289777  .00020351  00000+0  54503-3 0  9995",
    "line2": "2 68876  51.8774 269.5971 0006052 280.9870  79.0436 15.37977841  6866"
  },
  {
    "name": "KUIPER-00482",
    "noradId": "68877",
    "line1": "1 68877U 26095P   26162.58335648 -.00004012  00000+0 -12817-3 0  9997",
    "line2": "2 68877  51.8868 269.4744 0001119 322.7812 178.0720 15.28971303  4870"
  },
  {
    "name": "KUIPER-00483",
    "noradId": "68878",
    "line1": "1 68878U 26095Q   26162.58335648 -.00015011  00000+0 -21043-2 0  9999",
    "line2": "2 68878  51.8988 276.9116 0002502 122.8094 175.8597 14.76603845  5691"
  },
  {
    "name": "KUIPER-00488",
    "noradId": "68879",
    "line1": "1 68879U 26095R   26162.54460972  .00020392  00000+0  58484-3 0  9991",
    "line2": "2 68879  51.8677 270.1722 0011032 301.0565  58.9338 15.35803979  6857"
  },
  {
    "name": "KUIPER-00489",
    "noradId": "68880",
    "line1": "1 68880U 26095S   26162.60025452  .00022679  00000+0  64276-3 0  9996",
    "line2": "2 68880  51.8758 269.8275 0010591 296.6738  63.3163 15.36111515  6863"
  },
  {
    "name": "KUIPER-00499",
    "noradId": "68881",
    "line1": "1 68881U 26095T   26162.55015625 -.00008447  00000+0 -23582-3 0  9996",
    "line2": "2 68881  51.8707 270.2183 0007974 296.2676  63.7490 15.34745949  6858"
  },
  {
    "name": "KUIPER-00500",
    "noradId": "68882",
    "line1": "1 68882U 26095U   26162.58335648 -.00050243  00000+0 -64561-2 0  9992",
    "line2": "2 68882  51.9004 275.4401 0001593  18.3103 101.0440 14.80923089  5627"
  },
  {
    "name": "KUIPER-00502",
    "noradId": "68883",
    "line1": "1 68883U 26095V   26162.55638514  .00026574  00000+0  70374-3 0  9996",
    "line2": "2 68883  51.8808 269.5655 0005879 285.7154  74.3184 15.38161444  6868"
  }
]